[{"OBJECT_NAME":"CS1","OBJECT_ID":"2021-088B","EPOCH":"2026-03-09T18:02:30.253920","MEAN_MOTION":15.31848439,"ECCENTRICITY":0.00141292,"INCLINATION":97.3882,"RA_OF_ASC_NODE":132.1684,"ARG_OF_PERICENTER":78.0335,"MEAN_ANOMALY":282.249,"EPHEMERIS_TYPE":0,"CLASSIFICATION_TYPE":"U","NORAD_CAT_ID":49261,"ELEMENT_SET_NO":999,"REV_AT_EPOCH":24518,"BSTAR":0.00051175576,"MEAN_MOTION_DOT":0.00015722,"MEAN_MOTION_DDOT":0},{"OBJECT_NAME":"STARLINK-30412","OBJECT_ID":"2023-141Q","EPOCH":"2026-03-09T21:33:40.617792","MEAN_MOTION":15.30193138,"ECCENTRICITY":0.00013384,"INCLINATION":53.1605,"RA_OF_ASC_NODE":282.8927,"ARG_OF_PERICENTER":85.3647,"MEAN_ANOMALY":274.7507,"EPHEMERIS_TYPE":0,"CLASSIFICATION_TYPE":"U","NORAD_CAT_ID":57854,"ELEMENT_SET_NO":999,"REV_AT_EPOCH":14036,"BSTAR":7.7272397e-5,"MEAN_MOTION_DOT":1.93e-5,"MEAN_MOTION_DDOT":0}]
